STARLINK-1643           
1 46136U 20057V   20253.25001157 -.01197820  00000-0 -14435-1 0  9995
2 46136  53.0016 333.9173 0001446  43.1186 137.1476 15.62929345  1774
STARLINK-1586           
1 46137U 20057W   20253.50001157 -.00002384  00000-0 -17290-4 0  9998
2 46137  52.9996 332.3781 0001340  47.8148 239.6698 15.66315341  4125
STARLINK-1590           
1 46138U 20057X   20253.50001157 -.00000672  00000-0 -14988-5 0  9999
2 46138  52.9986 332.7589 0001610  60.5476  40.8762 15.62753081  4128
STARLINK-1592           
1 46139U 20057Y   20253.50001157 -.00035836  00000-0 -38675-3 0  9997
2 46139  53.0008 332.7298 0001368  56.5092  56.3257 15.62785704  4120
STARLINK-1594           
1 46140U 20057Z   20253.50001157 -.00011225  00000-0 -11085-3 0  9991
2 46140  52.9990 332.7032 0004949 293.3802 194.8672 15.64058858  4128
STARLINK-1596           
1 46141U 20057AA  20253.50001157 -.00107778  00000-0 -11825-2 0  9992
2 46141  52.9991 332.7194 0004910 282.7106 197.2280 15.62827508  4122
STARLINK-1597           
1 46142U 20057AB  20253.25001157 -.01138013  00000-0 -15179-1 0  9997
2 46142  53.0000 333.9853 0001276  28.4859 117.8893 15.60190779  1770
STARLINK-1599           
1 46143U 20057AC  20253.25001157  .00022323  00000-0  21701-3 0  9991
2 46143  52.9992 333.5944 0001111  51.4887 270.1335 15.66243954  1775
STARLINK-1606           
1 46144U 20057AD  20253.50001157 -.00002672  00000-0 -20036-4 0  9998
2 46144  53.0000 332.3970 0001486  57.1553 222.0760 15.66290085  4129
STARLINK-1607           
1 46145U 20057AE  20253.50001157 -.00075463  00000-0 -86984-3 0  9990
2 46145  53.0004 332.7192 0001366  54.8623  82.0939 15.61425228  4129
STARLINK-1608           
1 46146U 20057AF  20253.50001157  .00001084  00000-0  17662-4 0  9995
2 46146  53.0012 332.7324 0001322  58.2102  57.0411 15.62777372  4126
STARLINK-1611           
1 46147U 20057AG  20253.50001157 -.00117520  00000-0 -12927-2 0  9998
2 46147  53.0017 332.7258 0002373 320.2418 161.4177 15.62818226  4120
